[{"OBJECT_NAME":"STARLINK-3304","OBJECT_ID":"2021-125F","EPOCH":"2026-03-09T18:31:17.345856","MEAN_MOTION":15.08833438,"ECCENTRICITY":0.0001066,"INCLINATION":53.2164,"RA_OF_ASC_NODE":258.7523,"ARG_OF_PERICENTER":95.9728,"MEAN_ANOMALY":264.1386,"EPHEMERIS_TYPE":0,"CLASSIFICATION_TYPE":"U","NORAD_CAT_ID":50161,"ELEMENT_SET_NO":999,"REV_AT_EPOCH":23646,"BSTAR":9.17404e-5,"MEAN_MOTION_DOT":1.172e-5,"MEAN_MOTION_DDOT":0},{"OBJECT_NAME":"OBJECT K","OBJECT_ID":"2017-042K","EPOCH":"2026-03-09T21:28:20.621568","MEAN_MOTION":15.07994228,"ECCENTRICITY":0.00097557,"INCLINATION":97.4104,"RA_OF_ASC_NODE":233.8721,"ARG_OF_PERICENTER":49.2775,"MEAN_ANOMALY":310.9299,"EPHEMERIS_TYPE":0,"CLASSIFICATION_TYPE":"U","NORAD_CAT_ID":42834,"ELEMENT_SET_NO":999,"REV_AT_EPOCH":47201,"BSTAR":0.00042776846,"MEAN_MOTION_DOT":6.528e-5,"MEAN_MOTION_DDOT":0}]
